STARLINK-32748          
1 62524U 25004P   26068.44755735  .00024428  00000+0  89374-3 0  9995
2 62524  43.0027 221.0601 0002873 281.0047  79.0481 15.27597298 66423
BLUEBON                 
1 62688U 25009CH  26068.70316231  .00010452  00000+0  37313-3 0  9992
2 62688  97.4017 152.2033 0001193  43.3900 316.7434 15.29047253 63767
